<?xml version="1.0" encoding="UTF-8"?>
<gpx version="1.1" creator="RaceMind OSM track builder">
  <trk><name>RIM Park Club Circuit</name><trkseg>
    <trkpt lat="43.5176993" lon="-80.5023281"></trkpt>
    <trkpt lat="43.5177703" lon="-80.5022512"></trkpt>
    <trkpt lat="43.5178287" lon="-80.5021568"></trkpt>
    <trkpt lat="43.5178717" lon="-80.5020478"></trkpt>
    <trkpt lat="43.5178939" lon="-80.5019273"></trkpt>
    <trkpt lat="43.5179032" lon="-80.5018031"></trkpt>
    <trkpt lat="43.5179031" lon="-80.5016781"></trkpt>
    <trkpt lat="43.517903" lon="-80.5015531"></trkpt>
    <trkpt lat="43.5179029" lon="-80.5014281"></trkpt>
    <trkpt lat="43.5179029" lon="-80.5013031"></trkpt>
    <trkpt lat="43.5179028" lon="-80.5011781"></trkpt>
    <trkpt lat="43.5179027" lon="-80.5010531"></trkpt>
    <trkpt lat="43.5179026" lon="-80.5009281"></trkpt>
    <trkpt lat="43.5179025" lon="-80.5008031"></trkpt>
    <trkpt lat="43.5179024" lon="-80.5006781"></trkpt>
    <trkpt lat="43.5179024" lon="-80.5005531"></trkpt>
    <trkpt lat="43.5179023" lon="-80.5004281"></trkpt>
    <trkpt lat="43.5179087" lon="-80.5003127"></trkpt>
    <trkpt lat="43.5179991" lon="-80.5003218"></trkpt>
    <trkpt lat="43.5180895" lon="-80.5003308"></trkpt>
    <trkpt lat="43.5181799" lon="-80.5003399"></trkpt>
    <trkpt lat="43.5182697" lon="-80.5003385"></trkpt>
    <trkpt lat="43.518358" lon="-80.5003101"></trkpt>
    <trkpt lat="43.5184462" lon="-80.5002816"></trkpt>
    <trkpt lat="43.5185345" lon="-80.5002531"></trkpt>
    <trkpt lat="43.5186228" lon="-80.5002247"></trkpt>
    <trkpt lat="43.518711" lon="-80.5001962"></trkpt>
    <trkpt lat="43.5187993" lon="-80.5001677"></trkpt>
    <trkpt lat="43.5188875" lon="-80.5001393"></trkpt>
    <trkpt lat="43.5189758" lon="-80.5001108"></trkpt>
    <trkpt lat="43.5190641" lon="-80.5000823"></trkpt>
    <trkpt lat="43.5191523" lon="-80.5000538"></trkpt>
    <trkpt lat="43.5192403" lon="-80.5000241"></trkpt>
    <trkpt lat="43.5193283" lon="-80.4999936"></trkpt>
    <trkpt lat="43.5194162" lon="-80.4999633"></trkpt>
    <trkpt lat="43.5195041" lon="-80.499933"></trkpt>
    <trkpt lat="43.5195921" lon="-80.4999027"></trkpt>
    <trkpt lat="43.51968" lon="-80.4998725"></trkpt>
    <trkpt lat="43.5197677" lon="-80.4998408"></trkpt>
    <trkpt lat="43.5198552" lon="-80.4998082"></trkpt>
    <trkpt lat="43.5199427" lon="-80.4997756"></trkpt>
    <trkpt lat="43.5200302" lon="-80.499743"></trkpt>
    <trkpt lat="43.5201177" lon="-80.4997105"></trkpt>
    <trkpt lat="43.5202062" lon="-80.4996833"></trkpt>
    <trkpt lat="43.520295" lon="-80.4996587"></trkpt>
    <trkpt lat="43.5203847" lon="-80.4996469"></trkpt>
    <trkpt lat="43.5204744" lon="-80.4996624"></trkpt>
    <trkpt lat="43.5205594" lon="-80.4997039"></trkpt>
    <trkpt lat="43.520643" lon="-80.4997524"></trkpt>
    <trkpt lat="43.5207265" lon="-80.4998008"></trkpt>
    <trkpt lat="43.5208054" lon="-80.4998517"></trkpt>
    <trkpt lat="43.5207662" lon="-80.4999644"></trkpt>
    <trkpt lat="43.520727" lon="-80.5000771"></trkpt>
    <trkpt lat="43.5206879" lon="-80.5001899"></trkpt>
    <trkpt lat="43.5206488" lon="-80.5003027"></trkpt>
    <trkpt lat="43.5206097" lon="-80.5004154"></trkpt>
    <trkpt lat="43.5205705" lon="-80.5005282"></trkpt>
    <trkpt lat="43.5205314" lon="-80.500641"></trkpt>
    <trkpt lat="43.5204923" lon="-80.5007537"></trkpt>
    <trkpt lat="43.5204532" lon="-80.5008665"></trkpt>
    <trkpt lat="43.5204141" lon="-80.5009793"></trkpt>
    <trkpt lat="43.5204113" lon="-80.501098"></trkpt>
    <trkpt lat="43.5203865" lon="-80.5012129"></trkpt>
    <trkpt lat="43.5203468" lon="-80.5013253"></trkpt>
    <trkpt lat="43.5203071" lon="-80.5014376"></trkpt>
    <trkpt lat="43.5202674" lon="-80.50155"></trkpt>
    <trkpt lat="43.5202611" lon="-80.5016617"></trkpt>
    <trkpt lat="43.5202882" lon="-80.5017726"></trkpt>
    <trkpt lat="43.5202493" lon="-80.5018855"></trkpt>
    <trkpt lat="43.5202104" lon="-80.5019984"></trkpt>
    <trkpt lat="43.5201715" lon="-80.5021113"></trkpt>
    <trkpt lat="43.5201326" lon="-80.5022243"></trkpt>
    <trkpt lat="43.5200937" lon="-80.5023372"></trkpt>
    <trkpt lat="43.5200548" lon="-80.5024501"></trkpt>
    <trkpt lat="43.5200159" lon="-80.502563"></trkpt>
    <trkpt lat="43.519977" lon="-80.5026759"></trkpt>
    <trkpt lat="43.5199381" lon="-80.5027888"></trkpt>
    <trkpt lat="43.5198992" lon="-80.5029017"></trkpt>
    <trkpt lat="43.5198603" lon="-80.5030146"></trkpt>
    <trkpt lat="43.5198214" lon="-80.5031275"></trkpt>
    <trkpt lat="43.5197825" lon="-80.5032404"></trkpt>
    <trkpt lat="43.5197448" lon="-80.5033541"></trkpt>
    <trkpt lat="43.5197092" lon="-80.503469"></trkpt>
    <trkpt lat="43.5196735" lon="-80.5035839"></trkpt>
    <trkpt lat="43.5196378" lon="-80.5036988"></trkpt>
    <trkpt lat="43.5196022" lon="-80.5038137"></trkpt>
    <trkpt lat="43.5195665" lon="-80.5039287"></trkpt>
    <trkpt lat="43.5195066" lon="-80.5040145"></trkpt>
    <trkpt lat="43.5194291" lon="-80.5040792"></trkpt>
    <trkpt lat="43.5193515" lon="-80.5041439"></trkpt>
    <trkpt lat="43.519274" lon="-80.5042086"></trkpt>
    <trkpt lat="43.5191904" lon="-80.5042569"></trkpt>
    <trkpt lat="43.5191049" lon="-80.5042981"></trkpt>
    <trkpt lat="43.5190187" lon="-80.504337"></trkpt>
    <trkpt lat="43.5189322" lon="-80.5043741"></trkpt>
    <trkpt lat="43.5188456" lon="-80.5044112"></trkpt>
    <trkpt lat="43.518759" lon="-80.5044482"></trkpt>
    <trkpt lat="43.5186725" lon="-80.5044853"></trkpt>
    <trkpt lat="43.5185859" lon="-80.5045224"></trkpt>
    <trkpt lat="43.5184994" lon="-80.5045595"></trkpt>
    <trkpt lat="43.5184128" lon="-80.5045968"></trkpt>
    <trkpt lat="43.518355" lon="-80.5045579"></trkpt>
    <trkpt lat="43.5183271" lon="-80.504439"></trkpt>
    <trkpt lat="43.5182992" lon="-80.50432"></trkpt>
    <trkpt lat="43.5182713" lon="-80.5042011"></trkpt>
    <trkpt lat="43.5182435" lon="-80.5040822"></trkpt>
    <trkpt lat="43.5182156" lon="-80.5039632"></trkpt>
    <trkpt lat="43.5181877" lon="-80.5038443"></trkpt>
    <trkpt lat="43.5181598" lon="-80.5037254"></trkpt>
    <trkpt lat="43.5181308" lon="-80.503607"></trkpt>
    <trkpt lat="43.5180983" lon="-80.5034903"></trkpt>
    <trkpt lat="43.5180659" lon="-80.5033735"></trkpt>
    <trkpt lat="43.5180335" lon="-80.5032568"></trkpt>
    <trkpt lat="43.5179922" lon="-80.5031456"></trkpt>
    <trkpt lat="43.51795" lon="-80.503035"></trkpt>
    <trkpt lat="43.5179077" lon="-80.5029245"></trkpt>
    <trkpt lat="43.5178619" lon="-80.5028167"></trkpt>
    <trkpt lat="43.5178137" lon="-80.5027109"></trkpt>
    <trkpt lat="43.5177609" lon="-80.5026094"></trkpt>
    <trkpt lat="43.5177056" lon="-80.5025103"></trkpt>
    <trkpt lat="43.5176504" lon="-80.5024112"></trkpt>
    <trkpt lat="43.5176993" lon="-80.5023281"></trkpt>
  </trkseg></trk>
</gpx>