<?xml version="1.0" encoding="UTF-8"?>
<gpx version="1.1" creator="RaceMind OSM track builder">
  <trk><name>RIM Park Grand Circuit</name><trkseg>
    <trkpt lat="43.5198881" lon="-80.5093776"></trkpt>
    <trkpt lat="43.5197845" lon="-80.5093343"></trkpt>
    <trkpt lat="43.5196808" lon="-80.509291"></trkpt>
    <trkpt lat="43.5195772" lon="-80.5092477"></trkpt>
    <trkpt lat="43.5194735" lon="-80.5092044"></trkpt>
    <trkpt lat="43.519367" lon="-80.5091782"></trkpt>
    <trkpt lat="43.51926" lon="-80.5091553"></trkpt>
    <trkpt lat="43.5191539" lon="-80.509129"></trkpt>
    <trkpt lat="43.519056" lon="-80.509074"></trkpt>
    <trkpt lat="43.5189487" lon="-80.5090534"></trkpt>
    <trkpt lat="43.5188454" lon="-80.5090633"></trkpt>
    <trkpt lat="43.5187462" lon="-80.5090591"></trkpt>
    <trkpt lat="43.5187607" lon="-80.5089111"></trkpt>
    <trkpt lat="43.5187752" lon="-80.5087631"></trkpt>
    <trkpt lat="43.5187897" lon="-80.5086151"></trkpt>
    <trkpt lat="43.5188042" lon="-80.5084671"></trkpt>
    <trkpt lat="43.5188186" lon="-80.5083191"></trkpt>
    <trkpt lat="43.5188331" lon="-80.5081711"></trkpt>
    <trkpt lat="43.5188476" lon="-80.5080231"></trkpt>
    <trkpt lat="43.5188621" lon="-80.5078751"></trkpt>
    <trkpt lat="43.5188766" lon="-80.5077271"></trkpt>
    <trkpt lat="43.5188883" lon="-80.5075788"></trkpt>
    <trkpt lat="43.5188892" lon="-80.5074295"></trkpt>
    <trkpt lat="43.5188901" lon="-80.5072801"></trkpt>
    <trkpt lat="43.518891" lon="-80.5071308"></trkpt>
    <trkpt lat="43.5188781" lon="-80.5069825"></trkpt>
    <trkpt lat="43.518865" lon="-80.5068343"></trkpt>
    <trkpt lat="43.5188497" lon="-80.5066865"></trkpt>
    <trkpt lat="43.5188273" lon="-80.5065404"></trkpt>
    <trkpt lat="43.518805" lon="-80.5063943"></trkpt>
    <trkpt lat="43.5187815" lon="-80.5062486"></trkpt>
    <trkpt lat="43.5187455" lon="-80.5061077"></trkpt>
    <trkpt lat="43.5187096" lon="-80.5059669"></trkpt>
    <trkpt lat="43.5186736" lon="-80.505826"></trkpt>
    <trkpt lat="43.5186376" lon="-80.5056851"></trkpt>
    <trkpt lat="43.5186016" lon="-80.5055443"></trkpt>
    <trkpt lat="43.5185656" lon="-80.5054034"></trkpt>
    <trkpt lat="43.5185296" lon="-80.5052626"></trkpt>
    <trkpt lat="43.5184936" lon="-80.5051217"></trkpt>
    <trkpt lat="43.5184576" lon="-80.5049809"></trkpt>
    <trkpt lat="43.5184216" lon="-80.50484"></trkpt>
    <trkpt lat="43.5184422" lon="-80.5047377"></trkpt>
    <trkpt lat="43.5185453" lon="-80.504692"></trkpt>
    <trkpt lat="43.5186484" lon="-80.5046462"></trkpt>
    <trkpt lat="43.5187515" lon="-80.5046003"></trkpt>
    <trkpt lat="43.5188545" lon="-80.5045545"></trkpt>
    <trkpt lat="43.5189576" lon="-80.5045087"></trkpt>
    <trkpt lat="43.5190594" lon="-80.5044577"></trkpt>
    <trkpt lat="43.519161" lon="-80.5044059"></trkpt>
    <trkpt lat="43.5192611" lon="-80.5043495"></trkpt>
    <trkpt lat="43.5193592" lon="-80.5042861"></trkpt>
    <trkpt lat="43.5194556" lon="-80.5042186"></trkpt>
    <trkpt lat="43.5195451" lon="-80.5041347"></trkpt>
    <trkpt lat="43.5196347" lon="-80.5040507"></trkpt>
    <trkpt lat="43.5197243" lon="-80.5039667"></trkpt>
    <trkpt lat="43.5198039" lon="-80.5038675"></trkpt>
    <trkpt lat="43.5198743" lon="-80.503754"></trkpt>
    <trkpt lat="43.5199448" lon="-80.5036406"></trkpt>
    <trkpt lat="43.5200103" lon="-80.5035217"></trkpt>
    <trkpt lat="43.5200755" lon="-80.5034025"></trkpt>
    <trkpt lat="43.520133" lon="-80.5032767"></trkpt>
    <trkpt lat="43.5201804" lon="-80.5031425"></trkpt>
    <trkpt lat="43.5202279" lon="-80.5030082"></trkpt>
    <trkpt lat="43.5202753" lon="-80.502874"></trkpt>
    <trkpt lat="43.5203228" lon="-80.5027397"></trkpt>
    <trkpt lat="43.5203697" lon="-80.5026051"></trkpt>
    <trkpt lat="43.5204159" lon="-80.50247"></trkpt>
    <trkpt lat="43.520462" lon="-80.5023349"></trkpt>
    <trkpt lat="43.5205093" lon="-80.5022006"></trkpt>
    <trkpt lat="43.5205574" lon="-80.5020667"></trkpt>
    <trkpt lat="43.5206055" lon="-80.5019329"></trkpt>
    <trkpt lat="43.5206536" lon="-80.5017991"></trkpt>
    <trkpt lat="43.5207017" lon="-80.5016653"></trkpt>
    <trkpt lat="43.5207498" lon="-80.5015315"></trkpt>
    <trkpt lat="43.5207979" lon="-80.5013977"></trkpt>
    <trkpt lat="43.520846" lon="-80.5012639"></trkpt>
    <trkpt lat="43.5208942" lon="-80.5011301"></trkpt>
    <trkpt lat="43.5209423" lon="-80.5009963"></trkpt>
    <trkpt lat="43.5209904" lon="-80.5008625"></trkpt>
    <trkpt lat="43.5210385" lon="-80.5007287"></trkpt>
    <trkpt lat="43.5210866" lon="-80.5005949"></trkpt>
    <trkpt lat="43.5211347" lon="-80.5004611"></trkpt>
    <trkpt lat="43.5211828" lon="-80.5003273"></trkpt>
    <trkpt lat="43.5212309" lon="-80.5001935"></trkpt>
    <trkpt lat="43.5212813" lon="-80.5000613"></trkpt>
    <trkpt lat="43.5213324" lon="-80.4999296"></trkpt>
    <trkpt lat="43.5213828" lon="-80.4997974"></trkpt>
    <trkpt lat="43.5214329" lon="-80.499665"></trkpt>
    <trkpt lat="43.521483" lon="-80.4995326"></trkpt>
    <trkpt lat="43.5215331" lon="-80.4994002"></trkpt>
    <trkpt lat="43.5215831" lon="-80.4992678"></trkpt>
    <trkpt lat="43.5216332" lon="-80.4991353"></trkpt>
    <trkpt lat="43.5216833" lon="-80.4990029"></trkpt>
    <trkpt lat="43.5217334" lon="-80.4988705"></trkpt>
    <trkpt lat="43.5217835" lon="-80.4987381"></trkpt>
    <trkpt lat="43.5218336" lon="-80.4986057"></trkpt>
    <trkpt lat="43.5218837" lon="-80.4984733"></trkpt>
    <trkpt lat="43.5219338" lon="-80.4983409"></trkpt>
    <trkpt lat="43.5219868" lon="-80.498211"></trkpt>
    <trkpt lat="43.5220535" lon="-80.4980934"></trkpt>
    <trkpt lat="43.5221202" lon="-80.4979757"></trkpt>
    <trkpt lat="43.5221943" lon="-80.4978669"></trkpt>
    <trkpt lat="43.5222689" lon="-80.4977586"></trkpt>
    <trkpt lat="43.5223484" lon="-80.4976572"></trkpt>
    <trkpt lat="43.5224279" lon="-80.4975558"></trkpt>
    <trkpt lat="43.5225134" lon="-80.4974643"></trkpt>
    <trkpt lat="43.5226019" lon="-80.4973783"></trkpt>
    <trkpt lat="43.5226938" lon="-80.4972993"></trkpt>
    <trkpt lat="43.522787" lon="-80.4972237"></trkpt>
    <trkpt lat="43.5228876" lon="-80.4971684"></trkpt>
    <trkpt lat="43.5229897" lon="-80.4971193"></trkpt>
    <trkpt lat="43.5230944" lon="-80.4970807"></trkpt>
    <trkpt lat="43.5231967" lon="-80.4970658"></trkpt>
    <trkpt lat="43.5233014" lon="-80.4970622"></trkpt>
    <trkpt lat="43.5233762" lon="-80.4969614"></trkpt>
    <trkpt lat="43.5234729" lon="-80.4968942"></trkpt>
    <trkpt lat="43.5235728" lon="-80.4968367"></trkpt>
    <trkpt lat="43.5236777" lon="-80.496804"></trkpt>
    <trkpt lat="43.523785" lon="-80.4967837"></trkpt>
    <trkpt lat="43.5238912" lon="-80.4967543"></trkpt>
    <trkpt lat="43.5239972" lon="-80.4967238"></trkpt>
    <trkpt lat="43.5241032" lon="-80.4966933"></trkpt>
    <trkpt lat="43.5242092" lon="-80.4966629"></trkpt>
    <trkpt lat="43.5243152" lon="-80.4966324"></trkpt>
    <trkpt lat="43.5244212" lon="-80.4966019"></trkpt>
    <trkpt lat="43.5245273" lon="-80.4965714"></trkpt>
    <trkpt lat="43.5246333" lon="-80.4965409"></trkpt>
    <trkpt lat="43.5247393" lon="-80.4965105"></trkpt>
    <trkpt lat="43.5248443" lon="-80.4964742"></trkpt>
    <trkpt lat="43.524949" lon="-80.4964358"></trkpt>
    <trkpt lat="43.5250537" lon="-80.4963975"></trkpt>
    <trkpt lat="43.5251553" lon="-80.4963467"></trkpt>
    <trkpt lat="43.525256" lon="-80.4962918"></trkpt>
    <trkpt lat="43.5253568" lon="-80.4962369"></trkpt>
    <trkpt lat="43.5254077" lon="-80.4963644"></trkpt>
    <trkpt lat="43.5254572" lon="-80.4964972"></trkpt>
    <trkpt lat="43.5254983" lon="-80.4966353"></trkpt>
    <trkpt lat="43.5255241" lon="-80.4967788"></trkpt>
    <trkpt lat="43.5255197" lon="-80.4969272"></trkpt>
    <trkpt lat="43.5254834" lon="-80.4970662"></trkpt>
    <trkpt lat="43.5254366" lon="-80.4972009"></trkpt>
    <trkpt lat="43.5253899" lon="-80.4973356"></trkpt>
    <trkpt lat="43.5253431" lon="-80.4974704"></trkpt>
    <trkpt lat="43.5252964" lon="-80.4976051"></trkpt>
    <trkpt lat="43.5252496" lon="-80.4977398"></trkpt>
    <trkpt lat="43.5252029" lon="-80.4978745"></trkpt>
    <trkpt lat="43.5251561" lon="-80.4980093"></trkpt>
    <trkpt lat="43.5251094" lon="-80.498144"></trkpt>
    <trkpt lat="43.5250626" lon="-80.4982787"></trkpt>
    <trkpt lat="43.5250159" lon="-80.4984134"></trkpt>
    <trkpt lat="43.5249691" lon="-80.4985482"></trkpt>
    <trkpt lat="43.5249224" lon="-80.4986829"></trkpt>
    <trkpt lat="43.5248756" lon="-80.4988176"></trkpt>
    <trkpt lat="43.5248289" lon="-80.4989523"></trkpt>
    <trkpt lat="43.5247821" lon="-80.4990871"></trkpt>
    <trkpt lat="43.5247354" lon="-80.4992218"></trkpt>
    <trkpt lat="43.5246886" lon="-80.4993565"></trkpt>
    <trkpt lat="43.5246419" lon="-80.4994913"></trkpt>
    <trkpt lat="43.5245951" lon="-80.499626"></trkpt>
    <trkpt lat="43.5245484" lon="-80.4997607"></trkpt>
    <trkpt lat="43.5245016" lon="-80.4998954"></trkpt>
    <trkpt lat="43.5244549" lon="-80.5000302"></trkpt>
    <trkpt lat="43.5244081" lon="-80.5001649"></trkpt>
    <trkpt lat="43.5243614" lon="-80.5002996"></trkpt>
    <trkpt lat="43.5243147" lon="-80.5004343"></trkpt>
    <trkpt lat="43.5242679" lon="-80.5005691"></trkpt>
    <trkpt lat="43.5242212" lon="-80.5007038"></trkpt>
    <trkpt lat="43.5241742" lon="-80.5008384"></trkpt>
    <trkpt lat="43.5241268" lon="-80.5009727"></trkpt>
    <trkpt lat="43.5240794" lon="-80.501107"></trkpt>
    <trkpt lat="43.524032" lon="-80.5012413"></trkpt>
    <trkpt lat="43.5239846" lon="-80.5013756"></trkpt>
    <trkpt lat="43.5239372" lon="-80.5015098"></trkpt>
    <trkpt lat="43.5238898" lon="-80.5016441"></trkpt>
    <trkpt lat="43.5238424" lon="-80.5017784"></trkpt>
    <trkpt lat="43.523795" lon="-80.5019127"></trkpt>
    <trkpt lat="43.5237476" lon="-80.502047"></trkpt>
    <trkpt lat="43.5237002" lon="-80.5021813"></trkpt>
    <trkpt lat="43.5236528" lon="-80.5023156"></trkpt>
    <trkpt lat="43.5236054" lon="-80.5024499"></trkpt>
    <trkpt lat="43.523558" lon="-80.5025842"></trkpt>
    <trkpt lat="43.5235106" lon="-80.5027185"></trkpt>
    <trkpt lat="43.5234632" lon="-80.5028527"></trkpt>
    <trkpt lat="43.5234158" lon="-80.502987"></trkpt>
    <trkpt lat="43.5233684" lon="-80.5031213"></trkpt>
    <trkpt lat="43.523321" lon="-80.5032556"></trkpt>
    <trkpt lat="43.5232736" lon="-80.5033899"></trkpt>
    <trkpt lat="43.5232262" lon="-80.5035242"></trkpt>
    <trkpt lat="43.5231788" lon="-80.5036585"></trkpt>
    <trkpt lat="43.5231314" lon="-80.5037928"></trkpt>
    <trkpt lat="43.523084" lon="-80.5039271"></trkpt>
    <trkpt lat="43.5230366" lon="-80.5040613"></trkpt>
    <trkpt lat="43.5229892" lon="-80.5041956"></trkpt>
    <trkpt lat="43.5229418" lon="-80.5043299"></trkpt>
    <trkpt lat="43.5228944" lon="-80.5044642"></trkpt>
    <trkpt lat="43.522847" lon="-80.5045985"></trkpt>
    <trkpt lat="43.5227996" lon="-80.5047328"></trkpt>
    <trkpt lat="43.5227522" lon="-80.5048671"></trkpt>
    <trkpt lat="43.5227048" lon="-80.5050013"></trkpt>
    <trkpt lat="43.5226574" lon="-80.5051356"></trkpt>
    <trkpt lat="43.52261" lon="-80.5052699"></trkpt>
    <trkpt lat="43.5225626" lon="-80.5054042"></trkpt>
    <trkpt lat="43.5225152" lon="-80.5055385"></trkpt>
    <trkpt lat="43.5224678" lon="-80.5056728"></trkpt>
    <trkpt lat="43.5224204" lon="-80.5058071"></trkpt>
    <trkpt lat="43.522373" lon="-80.5059413"></trkpt>
    <trkpt lat="43.5223256" lon="-80.5060756"></trkpt>
    <trkpt lat="43.5222782" lon="-80.5062099"></trkpt>
    <trkpt lat="43.5222308" lon="-80.5063442"></trkpt>
    <trkpt lat="43.5221834" lon="-80.5064785"></trkpt>
    <trkpt lat="43.522136" lon="-80.5066128"></trkpt>
    <trkpt lat="43.5220886" lon="-80.5067471"></trkpt>
    <trkpt lat="43.5220412" lon="-80.5068813"></trkpt>
    <trkpt lat="43.5219938" lon="-80.5070156"></trkpt>
    <trkpt lat="43.5219457" lon="-80.5071495"></trkpt>
    <trkpt lat="43.5218976" lon="-80.5072833"></trkpt>
    <trkpt lat="43.5218495" lon="-80.5074171"></trkpt>
    <trkpt lat="43.5218014" lon="-80.5075509"></trkpt>
    <trkpt lat="43.5217533" lon="-80.5076847"></trkpt>
    <trkpt lat="43.5217052" lon="-80.5078185"></trkpt>
    <trkpt lat="43.5216571" lon="-80.5079523"></trkpt>
    <trkpt lat="43.521609" lon="-80.5080861"></trkpt>
    <trkpt lat="43.5215609" lon="-80.50822"></trkpt>
    <trkpt lat="43.5215128" lon="-80.5083538"></trkpt>
    <trkpt lat="43.5214647" lon="-80.5084876"></trkpt>
    <trkpt lat="43.5214166" lon="-80.5086214"></trkpt>
    <trkpt lat="43.5213685" lon="-80.5087552"></trkpt>
    <trkpt lat="43.5213204" lon="-80.508889"></trkpt>
    <trkpt lat="43.5212723" lon="-80.5090228"></trkpt>
    <trkpt lat="43.5212242" lon="-80.5091566"></trkpt>
    <trkpt lat="43.5211761" lon="-80.5092904"></trkpt>
    <trkpt lat="43.521128" lon="-80.5094242"></trkpt>
    <trkpt lat="43.5210799" lon="-80.509558"></trkpt>
    <trkpt lat="43.5210318" lon="-80.5096918"></trkpt>
    <trkpt lat="43.5209837" lon="-80.5098257"></trkpt>
    <trkpt lat="43.5209356" lon="-80.5099595"></trkpt>
    <trkpt lat="43.5208676" lon="-80.5100146"></trkpt>
    <trkpt lat="43.5207697" lon="-80.5099509"></trkpt>
    <trkpt lat="43.5206717" lon="-80.5098872"></trkpt>
    <trkpt lat="43.5205738" lon="-80.5098235"></trkpt>
    <trkpt lat="43.5204758" lon="-80.5097598"></trkpt>
    <trkpt lat="43.5203779" lon="-80.5096961"></trkpt>
    <trkpt lat="43.5202799" lon="-80.5096324"></trkpt>
    <trkpt lat="43.520182" lon="-80.5095687"></trkpt>
    <trkpt lat="43.520084" lon="-80.509505"></trkpt>
    <trkpt lat="43.5199861" lon="-80.5094413"></trkpt>
    <trkpt lat="43.5198881" lon="-80.5093776"></trkpt>
  </trkseg></trk>
</gpx>