<?xml version="1.0" encoding="UTF-8"?>
<gpx version="1.1" creator="RaceMind OSM track builder">
  <trk><name>Millennium Boulevard Sprint</name><trkseg>
    <trkpt lat="43.5210602" lon="-80.5000424"></trkpt>
    <trkpt lat="43.5211268" lon="-80.5000818"></trkpt>
    <trkpt lat="43.521141" lon="-80.5001473"></trkpt>
    <trkpt lat="43.5211087" lon="-80.5002368"></trkpt>
    <trkpt lat="43.5210764" lon="-80.5003264"></trkpt>
    <trkpt lat="43.5210441" lon="-80.5004159"></trkpt>
    <trkpt lat="43.5210119" lon="-80.5005055"></trkpt>
    <trkpt lat="43.5209796" lon="-80.500595"></trkpt>
    <trkpt lat="43.5209473" lon="-80.5006846"></trkpt>
    <trkpt lat="43.520915" lon="-80.5007741"></trkpt>
    <trkpt lat="43.5208827" lon="-80.5008637"></trkpt>
    <trkpt lat="43.5208504" lon="-80.5009532"></trkpt>
    <trkpt lat="43.5208181" lon="-80.5010428"></trkpt>
    <trkpt lat="43.5207858" lon="-80.5011323"></trkpt>
    <trkpt lat="43.5207535" lon="-80.5012219"></trkpt>
    <trkpt lat="43.5207213" lon="-80.5013115"></trkpt>
    <trkpt lat="43.520689" lon="-80.501401"></trkpt>
    <trkpt lat="43.5206567" lon="-80.5014906"></trkpt>
    <trkpt lat="43.5206244" lon="-80.5015801"></trkpt>
    <trkpt lat="43.5205921" lon="-80.5016697"></trkpt>
    <trkpt lat="43.5205598" lon="-80.5017592"></trkpt>
    <trkpt lat="43.5205275" lon="-80.5018488"></trkpt>
    <trkpt lat="43.5204952" lon="-80.5019383"></trkpt>
    <trkpt lat="43.5204629" lon="-80.5020279"></trkpt>
    <trkpt lat="43.5204307" lon="-80.5021174"></trkpt>
    <trkpt lat="43.5203984" lon="-80.502207"></trkpt>
    <trkpt lat="43.5203661" lon="-80.5022965"></trkpt>
    <trkpt lat="43.5203338" lon="-80.5023861"></trkpt>
    <trkpt lat="43.520301" lon="-80.5024753"></trkpt>
    <trkpt lat="43.5202682" lon="-80.5025644"></trkpt>
    <trkpt lat="43.5202353" lon="-80.5026536"></trkpt>
    <trkpt lat="43.5202025" lon="-80.5027428"></trkpt>
    <trkpt lat="43.5201697" lon="-80.502832"></trkpt>
    <trkpt lat="43.5201369" lon="-80.5029212"></trkpt>
    <trkpt lat="43.5201041" lon="-80.5030104"></trkpt>
    <trkpt lat="43.5200713" lon="-80.5030996"></trkpt>
    <trkpt lat="43.5200343" lon="-80.5031855"></trkpt>
    <trkpt lat="43.5199965" lon="-80.5032709"></trkpt>
    <trkpt lat="43.5199586" lon="-80.5033562"></trkpt>
    <trkpt lat="43.5199208" lon="-80.5034416"></trkpt>
    <trkpt lat="43.519883" lon="-80.5035269"></trkpt>
    <trkpt lat="43.5198369" lon="-80.503603"></trkpt>
    <trkpt lat="43.5197843" lon="-80.5036719"></trkpt>
    <trkpt lat="43.5197318" lon="-80.5037408"></trkpt>
    <trkpt lat="43.5196792" lon="-80.5038097"></trkpt>
    <trkpt lat="43.5196266" lon="-80.5038786"></trkpt>
    <trkpt lat="43.5195741" lon="-80.5039475"></trkpt>
    <trkpt lat="43.5195678" lon="-80.5039247"></trkpt>
    <trkpt lat="43.5195963" lon="-80.5038327"></trkpt>
    <trkpt lat="43.5196248" lon="-80.5037408"></trkpt>
    <trkpt lat="43.5196533" lon="-80.5036488"></trkpt>
    <trkpt lat="43.5196819" lon="-80.5035569"></trkpt>
    <trkpt lat="43.5197104" lon="-80.5034649"></trkpt>
    <trkpt lat="43.519739" lon="-80.503373"></trkpt>
    <trkpt lat="43.5197683" lon="-80.5032816"></trkpt>
    <trkpt lat="43.5197995" lon="-80.5031912"></trkpt>
    <trkpt lat="43.5198306" lon="-80.5031009"></trkpt>
    <trkpt lat="43.5198617" lon="-80.5030106"></trkpt>
    <trkpt lat="43.5198928" lon="-80.5029202"></trkpt>
    <trkpt lat="43.5199239" lon="-80.5028299"></trkpt>
    <trkpt lat="43.5199551" lon="-80.5027396"></trkpt>
    <trkpt lat="43.5199862" lon="-80.5026492"></trkpt>
    <trkpt lat="43.5200173" lon="-80.5025589"></trkpt>
    <trkpt lat="43.5200484" lon="-80.5024686"></trkpt>
    <trkpt lat="43.5200796" lon="-80.5023782"></trkpt>
    <trkpt lat="43.5201107" lon="-80.5022879"></trkpt>
    <trkpt lat="43.5201418" lon="-80.5021976"></trkpt>
    <trkpt lat="43.5201729" lon="-80.5021072"></trkpt>
    <trkpt lat="43.520204" lon="-80.5020169"></trkpt>
    <trkpt lat="43.5202352" lon="-80.5019266"></trkpt>
    <trkpt lat="43.5202663" lon="-80.5018362"></trkpt>
    <trkpt lat="43.5202934" lon="-80.501746"></trkpt>
    <trkpt lat="43.5202596" lon="-80.5016576"></trkpt>
    <trkpt lat="43.520261" lon="-80.5015684"></trkpt>
    <trkpt lat="43.5202927" lon="-80.5014784"></trkpt>
    <trkpt lat="43.5203245" lon="-80.5013885"></trkpt>
    <trkpt lat="43.5203562" lon="-80.5012986"></trkpt>
    <trkpt lat="43.520388" lon="-80.5012087"></trkpt>
    <trkpt lat="43.5204144" lon="-80.5011179"></trkpt>
    <trkpt lat="43.5203999" lon="-80.5010201"></trkpt>
    <trkpt lat="43.5204312" lon="-80.5009299"></trkpt>
    <trkpt lat="43.5204625" lon="-80.5008397"></trkpt>
    <trkpt lat="43.5204938" lon="-80.5007495"></trkpt>
    <trkpt lat="43.5205251" lon="-80.5006593"></trkpt>
    <trkpt lat="43.5205564" lon="-80.500569"></trkpt>
    <trkpt lat="43.5205877" lon="-80.5004788"></trkpt>
    <trkpt lat="43.520619" lon="-80.5003886"></trkpt>
    <trkpt lat="43.5206503" lon="-80.5002984"></trkpt>
    <trkpt lat="43.5206816" lon="-80.5002082"></trkpt>
    <trkpt lat="43.5207128" lon="-80.5001179"></trkpt>
    <trkpt lat="43.5207442" lon="-80.5000277"></trkpt>
    <trkpt lat="43.5207755" lon="-80.4999376"></trkpt>
    <trkpt lat="43.5208069" lon="-80.4998474"></trkpt>
    <trkpt lat="43.5208702" lon="-80.4998962"></trkpt>
    <trkpt lat="43.5209336" lon="-80.4999449"></trkpt>
    <trkpt lat="43.5209969" lon="-80.4999937"></trkpt>
    <trkpt lat="43.5210602" lon="-80.5000424"></trkpt>
  </trkseg></trk>
</gpx>